[{"OBJECT_NAME":"STARLINK-31282","OBJECT_ID":"2024-056M","EPOCH":"2026-03-09T12:01:58.762848","MEAN_MOTION":15.27572077,"ECCENTRICITY":0.0001307,"INCLINATION":43.0042,"RA_OF_ASC_NODE":231.9332,"ARG_OF_PERICENTER":267.9054,"MEAN_ANOMALY":92.1648,"EPHEMERIS_TYPE":0,"CLASSIFICATION_TYPE":"U","NORAD_CAT_ID":59307,"ELEMENT_SET_NO":999,"REV_AT_EPOCH":11112,"BSTAR":3.4777849e-5,"MEAN_MOTION_DOT":6.95e-6,"MEAN_MOTION_DDOT":0},{"OBJECT_NAME":"OPS 8737","OBJECT_ID":"1984-012A","EPOCH":"2026-03-09T10:24:59.103360","MEAN_MOTION":14.13401649,"ECCENTRICITY":0.06371464,"INCLINATION":63.2981,"RA_OF_ASC_NODE":74.2458,"ARG_OF_PERICENTER":123.1893,"MEAN_ANOMALY":243.1939,"EPHEMERIS_TYPE":0,"CLASSIFICATION_TYPE":"U","NORAD_CAT_ID":14690,"ELEMENT_SET_NO":999,"REV_AT_EPOCH":9385,"BSTAR":0.00047042686,"MEAN_MOTION_DOT":6.85e-5,"MEAN_MOTION_DDOT":0}]
